{
  "links" : {
    "next" : "https://api.nasa.gov/neo/rest/v1/feed?start_date=2013-10-09&end_date=2013-10-09&detailed=true&api_key=t0TVs3DtDT2H8Oy2Zy8m2eVrNsAVKAexjcZXUckd",
    "prev" : "https://api.nasa.gov/neo/rest/v1/feed?start_date=2013-10-07&end_date=2013-10-07&detailed=true&api_key=t0TVs3DtDT2H8Oy2Zy8m2eVrNsAVKAexjcZXUckd",
    "self" : "https://api.nasa.gov/neo/rest/v1/feed?start_date=2013-10-08&end_date=2013-10-08&detailed=true&api_key=t0TVs3DtDT2H8Oy2Zy8m2eVrNsAVKAexjcZXUckd"
  },
  "element_count" : 11,
  "near_earth_objects" : {
    "2013-10-08" : [ {
      "links" : {
        "self" : "https://api.nasa.gov/neo/rest/v1/neo/3648842?api_key=t0TVs3DtDT2H8Oy2Zy8m2eVrNsAVKAexjcZXUckd"
      },
      "neo_reference_id" : "3648842",
      "name" : "(2013 TO4)",
      "nasa_jpl_url" : "http://ssd.jpl.nasa.gov/sbdb.cgi?sstr=3648842",
      "absolute_magnitude_h" : 25.3,
      "estimated_diameter" : {
        "kilometers" : {
          "estimated_diameter_min" : 0.0231502122,
          "estimated_diameter_max" : 0.0517654482
        },
        "meters" : {
          "estimated_diameter_min" : 23.150212221,
          "estimated_diameter_max" : 51.7654482198
        },
        "miles" : {
          "estimated_diameter_min" : 0.0143848705,
          "estimated_diameter_max" : 0.0321655483
        },
        "feet" : {
          "estimated_diameter_min" : 75.9521422633,
          "estimated_diameter_max" : 169.8341531374
        }
      },
      "is_potentially_hazardous_asteroid" : false,
      "close_approach_data" : [ {
        "close_approach_date" : "2013-10-08",
        "epoch_date_close_approach" : 1381215600000,
        "relative_velocity" : {
          "kilometers_per_second" : "9.4754559528",
          "kilometers_per_hour" : "34111.6414301899",
          "miles_per_hour" : "21195.6474208866"
        },
        "miss_distance" : {
          "astronomical" : "0.0161210683",
          "lunar" : "6.2710957527",
          "kilometers" : "2411677.5",
          "miles" : "1498547"
        },
        "orbiting_body" : "Earth"
      } ],
      "orbital_data" : {
        "orbit_id" : "6",
        "orbit_determination_date" : "2017-04-06 08:44:23",
        "orbit_uncertainty" : "7",
        "minimum_orbit_intersection" : ".00919793",
        "jupiter_tisserand_invariant" : "3.665",
        "epoch_osculation" : "2458000.5",
        "eccentricity" : ".5237406195728086",
        "semi_major_axis" : "1.989613483064717",
        "inclination" : "5.071709450291179",
        "ascending_node_longitude" : "204.1760083452124",
        "orbital_period" : "1025.065223698006",
        "perihelion_distance" : ".9475720847339882",
        "perihelion_argument" : "204.7210514491748",
        "aphelion_distance" : "3.031654881395446",
        "perihelion_time" : "2457624.343475894785",
        "mean_anomaly" : "132.1051046774878",
        "mean_motion" : ".3511971645094649",
        "equinox" : "J2000"
      }
    }, {
      "links" : {
        "self" : "https://api.nasa.gov/neo/rest/v1/neo/2368664?api_key=t0TVs3DtDT2H8Oy2Zy8m2eVrNsAVKAexjcZXUckd"
      },
      "neo_reference_id" : "2368664",
      "name" : "368664 (2005 JA22)",
      "nasa_jpl_url" : "http://ssd.jpl.nasa.gov/sbdb.cgi?sstr=2368664",
      "absolute_magnitude_h" : 18.6,
      "estimated_diameter" : {
        "kilometers" : {
          "estimated_diameter_min" : 0.5064714588,
          "estimated_diameter_max" : 1.1325046106
        },
        "meters" : {
          "estimated_diameter_min" : 506.4714588346,
          "estimated_diameter_max" : 1132.5046106177
        },
        "miles" : {
          "estimated_diameter_min" : 0.3147066768,
          "estimated_diameter_max" : 0.7037055224
        },
        "feet" : {
          "estimated_diameter_min" : 1661.651821003,
          "estimated_diameter_max" : 3715.566426699
        }
      },
      "is_potentially_hazardous_asteroid" : false,
      "close_approach_data" : [ {
        "close_approach_date" : "2013-10-08",
        "epoch_date_close_approach" : 1381215600000,
        "relative_velocity" : {
          "kilometers_per_second" : "7.3814486195",
          "kilometers_per_hour" : "26573.2150300287",
          "miles_per_hour" : "16511.5624168531"
        },
        "miss_distance" : {
          "astronomical" : "0.1919672488",
          "lunar" : "74.6752624512",
          "kilometers" : "28717892",
          "miles" : "17844470"
        },
        "orbiting_body" : "Earth"
      } ],
      "orbital_data" : {
        "orbit_id" : "102",
        "orbit_determination_date" : "2017-04-06 09:22:34",
        "orbit_uncertainty" : "0",
        "minimum_orbit_intersection" : ".190404",
        "jupiter_tisserand_invariant" : "4.399",
        "epoch_osculation" : "2458000.5",
        "eccentricity" : ".2987857776828221",
        "semi_major_axis" : "1.534814991149904",
        "inclination" : "13.24207138913992",
        "ascending_node_longitude" : "166.3645907753359",
        "orbital_period" : "694.5163522656914",
        "perihelion_distance" : "1.076234100419927",
        "perihelion_argument" : "252.1502272941979",
        "aphelion_distance" : "1.993395881879882",
        "perihelion_time" : "2458008.599974377772",
        "mean_anomaly" : "355.8014080352676",
        "mean_motion" : ".5183463266567983",
        "equinox" : "J2000"
      }
    }, {
      "links" : {
        "self" : "https://api.nasa.gov/neo/rest/v1/neo/2371973?api_key=t0TVs3DtDT2H8Oy2Zy8m2eVrNsAVKAexjcZXUckd"
      },
      "neo_reference_id" : "2371973",
      "name" : "371973 (2008 GE1)",
      "nasa_jpl_url" : "http://ssd.jpl.nasa.gov/sbdb.cgi?sstr=2371973",
      "absolute_magnitude_h" : 19.6,
      "estimated_diameter" : {
        "kilometers" : {
          "estimated_diameter_min" : 0.3195618867,
          "estimated_diameter_max" : 0.7145621017
        },
        "meters" : {
          "estimated_diameter_min" : 319.5618867213,
          "estimated_diameter_max" : 714.5621017269
        },
        "miles" : {
          "estimated_diameter_min" : 0.1985664891,
          "estimated_diameter_max" : 0.4440081677
        },
        "feet" : {
          "estimated_diameter_min" : 1048.4314204307,
          "estimated_diameter_max" : 2344.3639258298
        }
      },
      "is_potentially_hazardous_asteroid" : false,
      "close_approach_data" : [ {
        "close_approach_date" : "2013-10-08",
        "epoch_date_close_approach" : 1381215600000,
        "relative_velocity" : {
          "kilometers_per_second" : "4.4664046874",
          "kilometers_per_hour" : "16079.0568747732",
          "miles_per_hour" : "9990.9006453278"
        },
        "miss_distance" : {
          "astronomical" : "0.4982796852",
          "lunar" : "193.8307952881",
          "kilometers" : "74541584",
          "miles" : "46317992"
        },
        "orbiting_body" : "Earth"
      } ],
      "orbital_data" : {
        "orbit_id" : "57",
        "orbit_determination_date" : "2017-04-06 09:22:29",
        "orbit_uncertainty" : "0",
        "minimum_orbit_intersection" : ".274123",
        "jupiter_tisserand_invariant" : "4.235",
        "epoch_osculation" : "2458000.5",
        "eccentricity" : ".2480112376002725",
        "semi_major_axis" : "1.651446659779926",
        "inclination" : "6.717843896442816",
        "ascending_node_longitude" : "129.7178236187758",
        "orbital_period" : "775.1669596556034",
        "perihelion_distance" : "1.241869329857071",
        "perihelion_argument" : "312.8628131210484",
        "aphelion_distance" : "2.061023989702782",
        "perihelion_time" : "2458229.782262920445",
        "mean_anomaly" : "253.5176304624332",
        "mean_motion" : ".4644160790340488",
        "equinox" : "J2000"
      }
    } ]
  }
}